ORBCOMM-X               
1 21576U 91050C   24206.60210192  .00000886  00000+0  27972-3 0  9992
2 21576  98.3878 273.2220 0004920  96.7631 263.4119 14.42607051735091
ORBCOMM FM01            
1 23545U 95017A   24206.89841874  .00010402  00000+0  13415-2 0  9996
2 23545  69.9669 165.2568 0003099 131.4556 228.6860 14.81225313563887
ORBCOMM FM02            
1 23546U 95017B   24206.94565870  .00012155  00000+0  15775-2 0  9990
2 23546  69.9680 184.6836 0004357 107.1049 253.0579 14.80900029563533
ORBCOMM FM08            
1 25112U 97084A   24206.80215375  .00003983  00000+0  12199-2 0  9990
2 25112  45.0137 136.4386 0008071  28.9205 331.2091 14.43001130394031
ORBCOMM FM10            
1 25113U 97084B   24206.88360561  .00003726  00000+0  11464-2 0  9996
2 25113  45.0151 137.9714 0006156   1.8577 358.2296 14.42897438394201
ORBCOMM FM11            
1 25114U 97084C   24206.90904559  .00003410  00000+0  10558-2 0  9994
2 25114  45.0135 137.9845 0006982   2.5626 357.5259 14.42755291394165
ORBCOMM FM12            
1 25115U 97084D   24206.87077613  .00003257  00000+0  10113-2 0  9999
2 25115  45.0144 137.8889 0006008   1.7126 358.3744 14.42717162393957
ORBCOMM FM09            
1 25116U 97084E   24206.88398654  .00003300  00000+0  10248-2 0  9990
2 25116  45.0144 138.5353 0007091 349.8462  10.2244 14.42681981394166
